[{"OBJECT_NAME":"STARLINK-35126","OBJECT_ID":"2025-198M","EPOCH":"2026-03-03T15:32:35.778048","MEAN_MOTION":15.30206981,"ECCENTRICITY":0.0001933,"INCLINATION":53.1585,"RA_OF_ASC_NODE":299.159,"ARG_OF_PERICENTER":106.1788,"MEAN_ANOMALY":253.9426,"EPHEMERIS_TYPE":0,"CLASSIFICATION_TYPE":"U","NORAD_CAT_ID":65503,"ELEMENT_SET_NO":999,"REV_AT_EPOCH":2769,"BSTAR":0.0012398,"MEAN_MOTION_DOT":0.00036549,"MEAN_MOTION_DDOT":0},{"OBJECT_NAME":"STARLINK-35182","OBJECT_ID":"2025-198N","EPOCH":"2026-03-03T15:52:20.860320","MEAN_MOTION":15.30221629,"ECCENTRICITY":0.0001152,"INCLINATION":53.1578,"RA_OF_ASC_NODE":299.2435,"ARG_OF_PERICENTER":91.9034,"MEAN_ANOMALY":268.2099,"EPHEMERIS_TYPE":0,"CLASSIFICATION_TYPE":"U","NORAD_CAT_ID":65504,"ELEMENT_SET_NO":999,"REV_AT_EPOCH":2769,"BSTAR":0.0013751,"MEAN_MOTION_DOT":0.00040619,"MEAN_MOTION_DDOT":0},{"OBJECT_NAME":"STARLINK-35072","OBJECT_ID":"2025-198P","EPOCH":"2026-03-03T15:05:14.235072","MEAN_MOTION":15.30213684,"ECCENTRICITY":0.0001874,"INCLINATION":53.1603,"RA_OF_ASC_NODE":299.0402,"ARG_OF_PERICENTER":124.1941,"MEAN_ANOMALY":235.9238,"EPHEMERIS_TYPE":0,"CLASSIFICATION_TYPE":"U","NORAD_CAT_ID":65505,"ELEMENT_SET_NO":999,"REV_AT_EPOCH":2769,"BSTAR":0.00084359,"MEAN_MOTION_DOT":0.00024719,"MEAN_MOTION_DDOT":0},{"OBJECT_NAME":"STARLINK-35184","OBJECT_ID":"2025-198Q","EPOCH":"2026-03-03T16:11:56.411808","MEAN_MOTION":15.30188793,"ECCENTRICITY":0.000131,"INCLINATION":53.1582,"RA_OF_ASC_NODE":298.6201,"ARG_OF_PERICENTER":96.7125,"MEAN_ANOMALY":263.4025,"EPHEMERIS_TYPE":0,"CLASSIFICATION_TYPE":"U","NORAD_CAT_ID":65506,"ELEMENT_SET_NO":999,"REV_AT_EPOCH":2770,"BSTAR":0.00097275,"MEAN_MOTION_DOT":0.00028552,"MEAN_MOTION_DDOT":0},{"OBJECT_NAME":"STARLINK-35163","OBJECT_ID":"2025-198R","EPOCH":"2026-03-03T01:44:20.396256","MEAN_MOTION":15.3019246,"ECCENTRICITY":0.00010922,"INCLINATION":53.1582,"RA_OF_ASC_NODE":301.9703,"ARG_OF_PERICENTER":85.0111,"MEAN_ANOMALY":275.1014,"EPHEMERIS_TYPE":0,"CLASSIFICATION_TYPE":"U","NORAD_CAT_ID":65507,"ELEMENT_SET_NO":999,"REV_AT_EPOCH":2760,"BSTAR":9.52205e-6,"MEAN_MOTION_DOT":-7.7e-7,"MEAN_MOTION_DDOT":0},{"OBJECT_NAME":"STARLINK-35119","OBJECT_ID":"2025-198S","EPOCH":"2026-03-03T16:04:30.147168","MEAN_MOTION":15.30218687,"ECCENTRICITY":8.1e-5,"INCLINATION":53.1571,"RA_OF_ASC_NODE":299.2999,"ARG_OF_PERICENTER":90.5387,"MEAN_ANOMALY":269.5707,"EPHEMERIS_TYPE":0,"CLASSIFICATION_TYPE":"U","NORAD_CAT_ID":65508,"ELEMENT_SET_NO":999,"REV_AT_EPOCH":2769,"BSTAR":0.001183,"MEAN_MOTION_DOT":0.00034862,"MEAN_MOTION_DDOT":0},{"OBJECT_NAME":"STARLINK-35168","OBJECT_ID":"2025-198T","EPOCH":"2026-03-02T23:42:55.221696","MEAN_MOTION":15.30166277,"ECCENTRICITY":0.00010282,"INCLINATION":53.1599,"RA_OF_ASC_NODE":302.1543,"ARG_OF_PERICENTER":93.9884,"MEAN_ANOMALY":266.1234,"EPHEMERIS_TYPE":0,"CLASSIFICATION_TYPE":"U","NORAD_CAT_ID":65509,"ELEMENT_SET_NO":999,"REV_AT_EPOCH":2759,"BSTAR":0.00086836008,"MEAN_MOTION_DOT":0.0002542,"MEAN_MOTION_DDOT":0},{"OBJECT_NAME":"STARLINK-35122","OBJECT_ID":"2025-198U","EPOCH":"2026-03-03T00:57:14.402592","MEAN_MOTION":15.3020293,"ECCENTRICITY":0.00011057,"INCLINATION":53.1588,"RA_OF_ASC_NODE":301.7651,"ARG_OF_PERICENTER":81.137,"MEAN_ANOMALY":278.9756,"EPHEMERIS_TYPE":0,"CLASSIFICATION_TYPE":"U","NORAD_CAT_ID":65510,"ELEMENT_SET_NO":999,"REV_AT_EPOCH":2760,"BSTAR":0.00056831916,"MEAN_MOTION_DOT":0.00016512,"MEAN_MOTION_DDOT":0},{"OBJECT_NAME":"STARLINK-35124","OBJECT_ID":"2025-198V","EPOCH":"2026-03-03T16:19:32.254752","MEAN_MOTION":15.30218921,"ECCENTRICITY":0.0001216,"INCLINATION":53.1576,"RA_OF_ASC_NODE":298.652,"ARG_OF_PERICENTER":92.0497,"MEAN_ANOMALY":268.0643,"EPHEMERIS_TYPE":0,"CLASSIFICATION_TYPE":"U","NORAD_CAT_ID":65511,"ELEMENT_SET_NO":999,"REV_AT_EPOCH":2769,"BSTAR":0.00099503,"MEAN_MOTION_DOT":0.00029244,"MEAN_MOTION_DDOT":0},{"OBJECT_NAME":"STARLINK-35149","OBJECT_ID":"2025-198W","EPOCH":"2026-03-03T16:10:25.071456","MEAN_MOTION":15.30214039,"ECCENTRICITY":0.0001088,"INCLINATION":53.1574,"RA_OF_ASC_NODE":298.6093,"ARG_OF_PERICENTER":99.4088,"MEAN_ANOMALY":260.7036,"EPHEMERIS_TYPE":0,"CLASSIFICATION_TYPE":"U","NORAD_CAT_ID":65512,"ELEMENT_SET_NO":999,"REV_AT_EPOCH":2770,"BSTAR":0.00085479,"MEAN_MOTION_DOT":0.00025053,"MEAN_MOTION_DDOT":0},{"OBJECT_NAME":"STARLINK-35019","OBJECT_ID":"2025-198X","EPOCH":"2026-03-03T01:39:49.200480","MEAN_MOTION":15.30189413,"ECCENTRICITY":0.00012559,"INCLINATION":53.1585,"RA_OF_ASC_NODE":301.9476,"ARG_OF_PERICENTER":83.8638,"MEAN_ANOMALY":276.2506,"EPHEMERIS_TYPE":0,"CLASSIFICATION_TYPE":"U","NORAD_CAT_ID":65513,"ELEMENT_SET_NO":999,"REV_AT_EPOCH":2760,"BSTAR":0.00084396614,"MEAN_MOTION_DOT":0.00024712,"MEAN_MOTION_DDOT":0},{"OBJECT_NAME":"STARLINK-35026","OBJECT_ID":"2025-198Y","EPOCH":"2026-03-03T16:07:32.546208","MEAN_MOTION":15.30222394,"ECCENTRICITY":0.0002279,"INCLINATION":53.1565,"RA_OF_ASC_NODE":299.3073,"ARG_OF_PERICENTER":108.2884,"MEAN_ANOMALY":251.8365,"EPHEMERIS_TYPE":0,"CLASSIFICATION_TYPE":"U","NORAD_CAT_ID":65514,"ELEMENT_SET_NO":999,"REV_AT_EPOCH":2769,"BSTAR":0.0012923,"MEAN_MOTION_DOT":0.0003814,"MEAN_MOTION_DDOT":0},{"OBJECT_NAME":"STARLINK-35241","OBJECT_ID":"2025-198Z","EPOCH":"2026-03-03T15:38:40.137216","MEAN_MOTION":15.30216947,"ECCENTRICITY":0.0001189,"INCLINATION":53.1586,"RA_OF_ASC_NODE":299.1809,"ARG_OF_PERICENTER":101.901,"MEAN_ANOMALY":258.2124,"EPHEMERIS_TYPE":0,"CLASSIFICATION_TYPE":"U","NORAD_CAT_ID":65515,"ELEMENT_SET_NO":999,"REV_AT_EPOCH":2769,"BSTAR":0.0011363,"MEAN_MOTION_DOT":0.00033464,"MEAN_MOTION_DDOT":0},{"OBJECT_NAME":"STARLINK-35216","OBJECT_ID":"2025-198AA","EPOCH":"2026-03-03T18:55:54.926688","MEAN_MOTION":15.30148912,"ECCENTRICITY":0.0001435,"INCLINATION":53.158,"RA_OF_ASC_NODE":298.6157,"ARG_OF_PERICENTER":44.2508,"MEAN_ANOMALY":315.8607,"EPHEMERIS_TYPE":0,"CLASSIFICATION_TYPE":"U","NORAD_CAT_ID":65516,"ELEMENT_SET_NO":999,"REV_AT_EPOCH":2771,"BSTAR":0.00030016,"MEAN_MOTION_DOT":8.527e-5,"MEAN_MOTION_DDOT":0},{"OBJECT_NAME":"STARLINK-35228","OBJECT_ID":"2025-198AB","EPOCH":"2026-03-03T14:56:07.553760","MEAN_MOTION":15.30219193,"ECCENTRICITY":0.0002207,"INCLINATION":53.1575,"RA_OF_ASC_NODE":299.0052,"ARG_OF_PERICENTER":32.4221,"MEAN_ANOMALY":327.6915,"EPHEMERIS_TYPE":0,"CLASSIFICATION_TYPE":"U","NORAD_CAT_ID":65517,"ELEMENT_SET_NO":999,"REV_AT_EPOCH":2769,"BSTAR":0.001025,"MEAN_MOTION_DOT":0.0003014,"MEAN_MOTION_DDOT":0},{"OBJECT_NAME":"STARLINK-35232","OBJECT_ID":"2025-198AC","EPOCH":"2026-03-03T16:21:03.937248","MEAN_MOTION":15.3024888,"ECCENTRICITY":0.0001237,"INCLINATION":53.1571,"RA_OF_ASC_NODE":298.6552,"ARG_OF_PERICENTER":120.2066,"MEAN_ANOMALY":239.9057,"EPHEMERIS_TYPE":0,"CLASSIFICATION_TYPE":"U","NORAD_CAT_ID":65518,"ELEMENT_SET_NO":999,"REV_AT_EPOCH":2770,"BSTAR":0.0012033,"MEAN_MOTION_DOT":0.00035502,"MEAN_MOTION_DDOT":0},{"OBJECT_NAME":"STARLINK-35164","OBJECT_ID":"2025-198AD","EPOCH":"2026-03-03T14:51:33.789312","MEAN_MOTION":15.30194702,"ECCENTRICITY":0.0001369,"INCLINATION":53.1581,"RA_OF_ASC_NODE":298.9758,"ARG_OF_PERICENTER":107.308,"MEAN_ANOMALY":252.8071,"EPHEMERIS_TYPE":0,"CLASSIFICATION_TYPE":"U","NORAD_CAT_ID":65519,"ELEMENT_SET_NO":999,"REV_AT_EPOCH":2769,"BSTAR":0.00090177,"MEAN_MOTION_DOT":0.00026439,"MEAN_MOTION_DDOT":0},{"OBJECT_NAME":"STARLINK-35112","OBJECT_ID":"2025-200A","EPOCH":"2026-03-03T18:01:34.487904","MEAN_MOTION":15.05651558,"ECCENTRICITY":8.08e-5,"INCLINATION":97.6022,"RA_OF_ASC_NODE":133.8869,"ARG_OF_PERICENTER":104.6949,"MEAN_ANOMALY":255.4367,"EPHEMERIS_TYPE":0,"CLASSIFICATION_TYPE":"U","NORAD_CAT_ID":65520,"ELEMENT_SET_NO":999,"REV_AT_EPOCH":2823,"BSTAR":0.0001749,"MEAN_MOTION_DOT":2.464e-5,"MEAN_MOTION_DDOT":0},{"OBJECT_NAME":"STARLINK-35187","OBJECT_ID":"2025-200B","EPOCH":"2026-03-03T18:45:28.963008","MEAN_MOTION":15.05656899,"ECCENTRICITY":0.0001147,"INCLINATION":97.6034,"RA_OF_ASC_NODE":134.0026,"ARG_OF_PERICENTER":105.8329,"MEAN_ANOMALY":254.3024,"EPHEMERIS_TYPE":0,"CLASSIFICATION_TYPE":"U","NORAD_CAT_ID":65521,"ELEMENT_SET_NO":999,"REV_AT_EPOCH":2824,"BSTAR":0.0012014,"MEAN_MOTION_DOT":0.0001732,"MEAN_MOTION_DDOT":0},{"OBJECT_NAME":"STARLINK-35188","OBJECT_ID":"2025-200C","EPOCH":"2026-03-03T16:45:49.774464","MEAN_MOTION":15.05649409,"ECCENTRICITY":0.0001094,"INCLINATION":97.6019,"RA_OF_ASC_NODE":133.9587,"ARG_OF_PERICENTER":96.4639,"MEAN_ANOMALY":263.6712,"EPHEMERIS_TYPE":0,"CLASSIFICATION_TYPE":"U","NORAD_CAT_ID":65522,"ELEMENT_SET_NO":999,"REV_AT_EPOCH":2823,"BSTAR":0.00013798,"MEAN_MOTION_DOT":1.931e-5,"MEAN_MOTION_DDOT":0},{"OBJECT_NAME":"STARLINK-35078","OBJECT_ID":"2025-200D","EPOCH":"2026-03-03T17:37:39.391680","MEAN_MOTION":15.05650809,"ECCENTRICITY":6.07e-5,"INCLINATION":97.6036,"RA_OF_ASC_NODE":133.9098,"ARG_OF_PERICENTER":90.0401,"MEAN_ANOMALY":270.0895,"EPHEMERIS_TYPE":0,"CLASSIFICATION_TYPE":"U","NORAD_CAT_ID":65523,"ELEMENT_SET_NO":999,"REV_AT_EPOCH":2823,"BSTAR":0.00021509,"MEAN_MOTION_DOT":3.044e-5,"MEAN_MOTION_DDOT":0},{"OBJECT_NAME":"STARLINK-35055","OBJECT_ID":"2025-200E","EPOCH":"2026-03-03T17:25:42.103200","MEAN_MOTION":15.05645272,"ECCENTRICITY":0.0001507,"INCLINATION":97.6044,"RA_OF_ASC_NODE":133.9229,"ARG_OF_PERICENTER":94.2846,"MEAN_ANOMALY":265.8553,"EPHEMERIS_TYPE":0,"CLASSIFICATION_TYPE":"U","NORAD_CAT_ID":65524,"ELEMENT_SET_NO":999,"REV_AT_EPOCH":2823,"BSTAR":0.0002522,"MEAN_MOTION_DOT":3.58e-5,"MEAN_MOTION_DDOT":0},{"OBJECT_NAME":"STARLINK-35057","OBJECT_ID":"2025-200F","EPOCH":"2026-03-03T18:13:32.281824","MEAN_MOTION":15.05654709,"ECCENTRICITY":9.36e-5,"INCLINATION":97.6015,"RA_OF_ASC_NODE":133.8773,"ARG_OF_PERICENTER":93.6142,"MEAN_ANOMALY":266.5192,"EPHEMERIS_TYPE":0,"CLASSIFICATION_TYPE":"U","NORAD_CAT_ID":65525,"ELEMENT_SET_NO":999,"REV_AT_EPOCH":2823,"BSTAR":0.00031328,"MEAN_MOTION_DOT":4.463e-5,"MEAN_MOTION_DDOT":0}]
